IRIDIUM 7               
1 24793U 97020B   25250.19516752  .00000491  00000+0  16221-3 0  9991
2 24793  86.4000 142.5834 0001964  92.9909 267.1513 14.35994694483666
IRIDIUM 5               
1 24795U 97020D   25250.18928702  .00008267  00000+0  67188-3 0  9991
2 24795  86.3867  45.8718 0106523 202.8691 156.7778 14.95026030497714
IRIDIUM 4               
1 24796U 97020E   25250.19684763  .00000503  00000+0  16360-3 0  9990
2 24796  86.3991 139.4077 0001988  86.3728 273.7697 14.36895424484246
IRIDIUM 914             
1 24836U 97030A   25250.24817494  .00000568  00000+0  17080-3 0  9992
2 24836  86.3985 147.7400 0001497  37.5299 322.6005 14.40937993618948
IRIDIUM 16              
1 24841U 97030F   25250.26177682  .00000544  00000+0  17088-3 0  9990
2 24841  86.4106 170.8287 0003580 120.7034 239.4518 14.38771358478808
IRIDIUM 911             
1 24842U 97030G   25250.23158444  .00000808  00000+0  21322-3 0  9992
2 24842  86.4530 169.5238 0013978 175.0183 185.1162 14.47727455486957
IRIDIUM 17              
1 24870U 97034B   25250.22982435  .00000661  00000+0  21266-3 0  9995
2 24870  86.4003 200.2631 0003862  94.9320 265.2319 14.37893281475374
IRIDIUM 920             
1 24871U 97034C   25250.27007259  .00000620  00000+0  18453-3 0  9992
2 24871  86.4045 179.3137 0011954 160.2549 199.9117 14.41600667478404
